#dP2018  1 28  0  0  0.00000000      96 __u+U IGS08 FIT  IAC
## 1986      0.00000000   900.00000000 58146 0.0000000000000
+   86   C01C02C03C04C05C06C07C08C09C10C11C12C13C14E01E02E03
+        E04E05E07E08E09E11E12E14E18E19E24E26E30G01G02G03G05
+        G06G07G08G09G10G11G12G13G14G15G16G17G19G20G21G22G23
+        G24G25G26G27G28G29G30G31G32J01J02J03R01R02R03R04R05
+        R06R07R08R09R10R11R13R14R15R16R17R18R19R20R21R22R23
+        R24  0  0  0  0  0  0  0  0  0  0  0  0  0  0  0  0
++        12 12 12 12 12  8  8  8  8  8  8  8  8  8  7  7  7
++         7  7  7  7  7  7  7  7  7  7  7  7  7  3  3  3  3
++         3  3  3  3  3  3  3  3  3  3  3  3  3  3  3  3  3
++         3  3  3  3  3  3  3  3  3  8 11 12  5  5  5  5  7
++         5  5  5  5  5  5  5  5  5  5  5  5  5  5  5  5  5
++         6  0  0  0  0  0  0  0  0  0  0  0  0  0  0  0  0
%c M  cc GPS ccc cccc cccc cccc cccc ccccc ccccc ccccc ccccc
%c cc cc ccc ccc cccc cccc cccc cccc ccccc ccccc ccccc ccccc
%f  1.2500000  1.025000000  0.00000000000  0.000000000000000
%f  0.0000000  0.000000000  0.00000000000  0.000000000000000
%i    0    0    0    0      0      0      0      0         0
%i    0    0    0    0      0      0      0      0         0
/* INFORMATION & ANALYSIS CENTER (IAC)            FINAL DATA
/* S/V CLOCKS ARE ALIGNED TO GPS & GLONASS TIME RESPECTIVELY
/* USING THE BROADCAST EPHEMERIS                            
/* PCV:IGS14_1984 OL/AL:FES2004  NONE     YN ORB:CoN CLK:CoN
*  2018 01 28 17 30  0.00000000
PC01 -32249.270480  27147.972543    470.491401    296.838765
PC02   4381.238884  41946.065966    645.764096   -186.668106
PC03 -14811.446790  39497.229951   1105.647341   -198.170002
PC04 -39602.404125  14442.646538    619.095111   -368.061665
PC05  21907.636649  36044.158471    734.852622   -133.818398
PC06 -24085.063003  25906.958813 -22960.978767   -678.191105
PC07 -14678.698620  37356.372954 -12096.377849   -291.141978
PC08  -6928.692498  22663.849583  34992.616677    142.100396
PC09  -9340.594236  26341.473857 -31520.532680   -457.932623
PC10  -4630.348710  41698.715248   1372.164703     23.655520
PC11 -26954.284351  -6952.087635   1303.079455   -370.129743
PC12 -16141.833610 -15795.078645 -16267.795333    375.262255
PC13   6367.543317  30450.944752  28590.868571   -172.751105
PC14 -19487.387007   -556.597945  20037.091698    170.214787
PE01   6717.985977 -28145.716240   6231.286223   -263.729613
PE02  -6702.463142  28162.196878  -6206.761547      3.052629
PE03 -13473.406472  19729.609305 -17472.572434      7.273629
PE04  -7679.701383 -15360.121850  24107.815268     35.062745
PE05 -26802.899238  12552.364547   -577.207231    332.827055
PE07  24414.315850   1958.735025 -16622.496178     93.995511
PE08   7739.707206  15169.429425 -24211.577066   6652.568803
PE09 -24345.451692  -1683.769633  16746.846168   6890.669799
PE11 -25940.818622 -12451.753458   6987.559056   1851.685278
PE12 -16681.920168 -21427.340074 -11787.807554   3383.056105
PE14    635.595736  14997.691592  18033.751326   6640.292481
PE18  -5026.021615 -20856.115415 -24466.108915   6469.646315
PE19  15255.350822 -19506.291196  16207.191473     18.830991
PE24 -14931.389223  -8626.010393 -24063.079191   6892.211871
PE26  20122.030516  -3578.221748 -21404.924328   6333.990983
PE30   5789.551460  26086.644035  12741.032134   6122.768279
PG01 -17793.488787  -5669.382667  18861.888596    -25.843088
PG02  14151.415701  22648.370154    -57.117079    215.771269
PG03 -18207.904605   4899.248104  18665.406569     -1.581553
PG05   8179.434961  15060.631695 -20340.709099    -15.754758
PG06   5379.469780  23968.741192  10108.661130    414.857592
PG07 -11162.545032  10802.518287 -21290.208837    244.958838
PG08 -24851.772109  -5526.533513  -7750.635094    -89.222047
PG09 -21404.943483   9026.829505 -12923.371905    496.838987
PG10   9809.694142 -23958.191012   5602.131803    152.558189
PG11 -22739.402330  -5712.439594  11797.524135   -735.121049
PG12  17219.287011  -1831.429586  19903.762853    353.189946
PG13  18970.914550  12352.881330 -14000.662831    -95.487569
PG14  -3979.199283 -15489.198056  21509.986189    -93.113603
PG15  25625.318830   3696.886730  -6979.119721   -357.237765
PG16  -6675.711145 -14624.804345 -21188.061918     33.299191
PG17  -6229.078260  14244.361152  21903.324669   -127.540738
PG19   1966.392284  14861.950511  21626.654189   -460.778038
PG20  17819.538459  -3630.364390 -19492.475429    499.483339
PG21   8566.507608 -13968.221350 -20103.731036   -436.741278
PG22 -16375.287778  -2856.407635  20957.773346   -272.480898
PG23 -26701.937442   1026.489596  -1684.227670   -219.050387
PG24  19045.385172   8183.913645  16651.544172    -45.362111
PG25  18355.804966 -14843.334859  11771.415718   -529.725783
PG26    986.984977 -22120.352741 -14573.013769   -270.768737
PG27 -15755.263093 -12223.765760 -17724.910133    364.827357
PG28 -13460.737943  22711.558965   3705.936619    683.838836
PG29  24210.820601  -4672.314293  -9862.094144    504.587757
PG30  -5156.217793  18934.077296 -17826.769898    108.581405
PG31  -5311.915602 -24183.363594   9058.686242    145.542804
PG32   5236.088130 -14964.476618  21321.925615   -533.002727
PJ01 -33015.082891  25700.919917  10292.288779   -132.717364
PJ02 -18087.530161  26195.098140 -23370.337677     -0.034378
PJ03 -29376.994273  26597.283282  19448.748430     -0.198362
PR01  11368.346872   5243.088240 -22230.302484     21.290609
PR02  21757.498038  -8931.709233  -9783.662542    292.444389
PR03  17854.934278 -16433.793719   7828.721168    122.608080
PR04   3116.615049 -14148.479068  20999.904541    247.748541
PR05 -12719.147056  -4014.061668  21728.388093   -238.020172
PR06 -21807.446218   9760.699962   8958.867409    125.985571
PR07 -17720.806329  16475.135599  -8100.676891    -28.658969
PR08  -3800.700858  14393.966593 -20668.125272    -27.023099
PR09 -10904.943585   2500.326448 -22908.344545     47.329156
PR10  -5819.597171  19803.455034 -14956.518532     16.954515
PR11   2452.142967  25270.288971   2271.087508    -20.506181
PR13  10480.703787  -3623.984094  22953.125454     -6.955790
PR14   6031.622842 -19674.330908  15089.153192     24.229171
PR15   -763.338699 -25405.747945   1340.067689     -5.765505
PR16  -9448.422026 -16082.350469 -17361.354427     84.293384
PR17   9777.724894  -6782.536017 -22551.132559    104.679722
PR18  -7470.755233 -13984.488146 -19983.613910    182.782382
PR19 -20551.956968 -13863.626422  -6003.632750    -42.848480
PR20 -21668.845539  -4976.357628  12564.774528   -325.103894
PR21  -9470.434693   6897.584416  22662.567798     20.720244
PR22   9009.378460  14277.396662  19079.023927    -14.113044
PR23  22085.051379  12478.559771   2666.260896    132.948040
PR24  21486.290655   4141.637582 -13113.768683   -161.716845
EOF
